ONEWEB-0012             
1 44057U 19010A   24253.58300639  .00000128  00000+0  30178-3 0  9993
2 44057  87.9174 357.3674 0001511 128.6267 231.4999 13.16592005266613
ONEWEB-0010             
1 44058U 19010B   24253.53233628  .00000122  00000+0  28539-3 0  9994
2 44058  87.9176 357.3580 0002136 114.5603 245.5751 13.16591573266659
ONEWEB-0008             
1 44059U 19010C   24253.32969311 -.00000067  00000+0 -20764-3 0  9999
2 44059  87.9174 357.3992 0001815  92.7268 267.4071 13.16594866266748
ONEWEB-0007             
1 44060U 19010D   24253.61232135  .00000208  00000+0  51978-3 0  9996
2 44060  87.9091  27.6726 0001516 109.6861 250.4433 13.15547955266497
ONEWEB-0006             
1 44061U 19010E   24253.61627941  .00000140  00000+0  33801-3 0  9990
2 44061  87.9082  27.6474 0001672 107.3630 252.7683 13.15550613266543
ONEWEB-0011             
1 44062U 19010F   24253.43410724  .00000156  00000+0  38099-3 0  9991
2 44062  87.9081  27.6858 0001959 101.1977 258.9374 13.15545178266515
ONEWEB-0013             
1 45131U 20008A   24253.56022060  .00000757  00000+0  21623-2 0  9995
2 45131  87.8701 182.7411 0001227  50.6174 309.5062 13.09391649221573
ONEWEB-0017             
1 45132U 20008B   24253.47341514 -.00000530  00000+0 -15557-2 0  9994
2 45132  87.8988 164.7654 0001964  82.0432 278.0918 13.10372912223389
